     3.04           N: GNSS NAV DATA    M: Mixed            RINEX VERSION / TYPE
RTKCONV-EX 2.5.0                        20251027 014030 UTC PGM / RUN BY / DATE 
format: u-blox UBX                                          COMMENT             
log: C:\Users\Anson Lam\Downloads\data lab\COM5___9600_25102COMMENT             
  7_013813.ubx                                              COMMENT             
                                                            END OF HEADER       
G23 2025 10 27 02 00 00  .563248060644D-03  .545696821064D-11  .000000000000D+00
      .182000000000D+03 -.782187500000D+02  .378301472060D-08 -.109616983743D+01
     -.414997339249D-05  .585734413471D-02  .571087002754D-05  .515368438721D+04
      .936000000000D+05  .191852450371D-06  .602883418343D-01 -.149011611938D-06
      .986634568924D+00  .286343750000D+03 -.280504444346D+01 -.771389274317D-08
     -.146791828755D-09  .100000000000D+01  .239000000000D+04  .000000000000D+00
      .200000000000D+01  .000000000000D+00 -.838190317154D-08  .950000000000D+03
      .923160000000D+05  .400000000000D+01
G24 2025 10 27 02 00 00 -.258052721620D-03  .126192389871D-10  .000000000000D+00
      .520000000000D+02 -.953125000000D+01  .538058126566D-08  .153095071881D+00
     -.512227416039D-06  .176258498104D-01  .663101673126D-05  .515365272331D+04
      .936000000000D+05 -.199303030968D-06  .207009534504D+01  .227242708206D-06
      .934366369710D+00  .242031250000D+03  .110966543519D+01 -.856714257016D-08
      .167149819604D-09  .100000000000D+01  .239000000000D+04  .000000000000D+00
      .200000000000D+01  .000000000000D+00  .232830643654D-08  .520000000000D+02
      .923160000000D+05  .400000000000D+01
G18 2025 10 27 02 00 00 -.519055407494D-03  .100044417195D-10  .000000000000D+00
      .168000000000D+03  .202187500000D+02  .440018328530D-08 -.598866801206D-01
      .894069671631D-06  .568713352550D-02  .275485217571D-05  .515366476631D+04
      .936000000000D+05  .745058059692D-08 -.944684851722D+00  .577419996262D-07
      .972665127612D+00  .329812500000D+03 -.287653869390D+01 -.824712924032D-08
     -.156435087578D-09  .100000000000D+01  .239000000000D+04  .000000000000D+00
      .200000000000D+01  .000000000000D+00 -.838190317154D-08  .680000000000D+03
      .923160000000D+05  .400000000000D+01
J07 2025 10 27 02 00 00 -.228174030781D-07  .000000000000D+00  .000000000000D+00
      .101000000000D+03 -.317812500000D+03  .000000000000D+00 -.777845538675D-01
     -.105369836092D-04  .165134784766D-03 -.264495611191D-06  .649338625717D+04
      .936000000000D+05 -.372529029846D-07  .310140630712D+01 -.195018947124D-05
      .116505040331D-02  .959375000000D+01 -.264021363355D+00  .119147820128D-08
      .000000000000D+00  .200000000000D+01  .239000000000D+04  .100000000000D+01
      .280000000000D+01  .100000000000D+01 -.465661287308D-08  .869000000000D+03
      .923160000000D+05  .000000000000D+00
R16 2025 10 27 01 45 00  .410685315728D-04  .909494701773D-12  .923100000000D+05
     -.191299252930D+05  .164885425568D+01  .000000000000D+00  .000000000000D+00
      .732974121094D+04 -.127973651886D+01  .000000000000D+00 -.100000000000D+01
      .152308808594D+05  .268449878693D+01 -.186264514923D-08  .000000000000D+00
R21 2025 10 27 01 45 00 -.249209813774D-03 -.363797880709D-11  .923100000000D+05
      .185951855469D+04  .599641799927D-01  .000000000000D+00  .000000000000D+00
      .247800654297D+05 -.802399635315D+00 -.931322574615D-09  .400000000000D+01
     -.566897167969D+04 -.348636913300D+01  .931322574615D-09  .000000000000D+00
R07 2025 10 27 01 45 00  .114060938358D-03  .909494701773D-12  .923100000000D+05
      .607911376953D+04 -.273824977875D+01  .279396772385D-08  .000000000000D+00
      .125610161133D+05 -.102068233490D+01  .000000000000D+00  .500000000000D+01
      .214032036133D+05  .137351322174D+01  .000000000000D+00  .000000000000D+00
E29 2025 10 27 01 20 00 -.144982361235D-03 -.348165940522D-11  .000000000000D+00
      .250000000000D+02 -.636250000000D+02  .302869758598D-08 -.100727446902D+01
     -.288896262646D-05  .357955694199D-03  .806339085102D-05  .544060854530D+04
      .912000000000D+05 -.242143869400D-07  .127472814248D+01 -.223517417908D-07
      .958984703322D+00  .168812500000D+03  .217119943190D+01 -.536236622122D-08
      .415731602604D-09  .513000000000D+03  .239000000000D+04  .000000000000D+00
      .312000000000D+01  .000000000000D+00 -.465661287308D-08 -.419095158577D-08
      .923350000000D+05  .000000000000D+00
E27 2025 10 27 01 20 00 -.808147597127D-03 -.104733999251D-10  .000000000000D+00
      .250000000000D+02  .561250000000D+02  .314120227225D-08 -.360618683844D-01
      .263936817646D-05  .236817169935D-03  .928342342377D-05  .544061634254D+04
      .912000000000D+05  .223517417908D-07 -.290841488448D+01 -.335276126862D-07
      .962960273903D+00  .146437500000D+03 -.978528362834D-01 -.532236455499D-08
     -.321441960776D-09  .513000000000D+03  .239000000000D+04  .000000000000D+00
      .312000000000D+01  .000000000000D+00  .465661287308D-09  .698491930962D-09
      .923350000000D+05  .000000000000D+00
E21 2025 10 27 01 20 00 -.698082672898D-03 -.235900188272D-11  .000000000000D+00
      .250000000000D+02  .490000000000D+02  .318798993543D-08 -.104386313714D+01
      .234134495258D-05  .873059034348D-04  .928714871407D-05  .544061448669D+04
      .912000000000D+05 -.465661287308D-07 -.290837997340D+01 -.260770320892D-07
      .962988404355D+00  .142875000000D+03  .111167152158D+00 -.538308136980D-08
     -.317156067966D-09  .513000000000D+03  .239000000000D+04  .000000000000D+00
      .312000000000D+01  .000000000000D+00  .465661287308D-09  .698491930962D-09
      .923350000000D+05  .000000000000D+00
E26 2025 10 27 01 20 00  .115948729217D-03  .108997255666D-10  .000000000000D+00
      .250000000000D+02  .198125000000D+02  .283511809405D-08 -.113953751285D+01
      .858679413795D-06  .384923652746D-03  .435858964920D-06  .544060323906D+04
      .912000000000D+05 -.726431608200D-07 -.812880380051D+00 -.707805156708D-07
      .992275622000D+00  .341937500000D+03 -.189918877887D+01 -.573952478853D-08
     -.150720563831D-09  .513000000000D+03  .239000000000D+04  .000000000000D+00
      .312000000000D+01  .000000000000D+00 -.768341124058D-08 -.814907252789D-08
      .923350000000D+05  .000000000000D+00
S37 2025 10 27 01 38 40 -.693835318089D-07  .000000000000D+00  .923360000000D+05
     -.253956539200D+05 -.738125000000D-03  .000000000000D+00  .100000000000D+01
      .336498066400D+05 -.700000000000D-03  .000000000000D+00  .819200000000D+04
     -.207348000000D+02  .325600000000D-02  .000000000000D+00  .000000000000D+00
C25 2025 10 27 01 00 00  .892917974852D-03  .114495080084D-10  .000000000000D+00
      .100000000000D+01 -.596875000000D+01  .437196782429D-08 -.365868886171D+00
     -.275205820799D-06  .666709034704D-03  .708457082510D-05  .528265546608D+04
      .900000000000D+05  .279396772385D-07  .269324628792D+01  .107102096081D-07
      .945896885202D+00  .214187500000D+03  .814201349726D+00 -.684207071399D-08
     -.118933525487D-09  .000000000000D+00  .103400000000D+04  .000000000000D+00
      .200000000000D+01  .000000000000D+00  .240000000000D-08  .240000000000D-08
      .923100000000D+05  .100000000000D+01
C41 2025 10 27 01 00 00 -.963406520896D-03  .339106520642D-11  .000000000000D+00
      .100000000000D+01 -.927500000000D+02  .312977322476D-08  .305021360285D+01
     -.453041866422D-05  .140423246194D-02  .768387690187D-05  .528263153458D+04
      .900000000000D+05 -.745058059692D-08  .626344364317D+00 -.772997736931D-07
      .983561096536D+00  .220078125000D+03 -.127313119916D+01 -.634633577893D-08
      .143220251413D-09  .000000000000D+00  .103400000000D+04  .000000000000D+00
      .200000000000D+01  .000000000000D+00 -.216000000000D-07 -.216000000000D-07
      .923100000000D+05  .100000000000D+01
C39 2025 10 27 01 00 00 -.150876585394D-04 -.419220214098D-12  .000000000000D+00
      .100000000000D+01 -.828750000000D+02  .143077388319D-08  .293186555638D+01
     -.230409204960D-05  .368024001364D-02  .842474400997D-05  .649309340286D+04
      .900000000000D+05  .386498868465D-07  .220468571598D+01 -.419095158577D-07
      .963450167132D+00 -.132656250000D+02 -.278660484530D+01 -.175650173678D-08
      .243224416988D-09  .000000000000D+00  .103400000000D+04  .000000000000D+00
      .200000000000D+01  .000000000000D+00  .820000000000D-08  .820000000000D-08
      .923100000000D+05  .100000000000D+01
C08 2025 10 27 01 00 00 -.797619693913D-03  .248263631875D-10  .000000000000D+00
      .100000000000D+01 -.460812500000D+03  .374301305437D-09 -.112951153692D+01
     -.153328292072D-04  .366574397776D-02  .498816370964D-05  .649322578430D+04
      .900000000000D+05  .119674950838D-06  .135334427165D+00 -.222120434046D-06
      .108413099155D+01  .136671875000D+03 -.313120855385D+01 -.171614291281D-08
     -.176793078427D-09  .000000000000D+00  .103400000000D+04  .000000000000D+00
      .200000000000D+01  .000000000000D+00  .112000000000D-07 -.700000000000D-09
      .923100000000D+05  .000000000000D+00
C16 2025 10 27 01 00 00 -.926892040297D-03  .102433617144D-10  .000000000000D+00
      .100000000000D+01 -.770937500000D+02  .146148944833D-08  .214439329260D+01
     -.208197161555D-05  .908045889810D-02  .838283449411D-05  .649340578079D+04
      .900000000000D+05 -.279396772385D-08  .227745406273D+01 -.129453837872D-06
      .962739616118D+00 -.165468750000D+02 -.217998511663D+01 -.177543109669D-08
      .181078971237D-09  .000000000000D+00  .103400000000D+04  .000000000000D+00
      .200000000000D+01  .000000000000D+00 -.270000000000D-08  .480000000000D-08
      .923100000000D+05  .000000000000D+00
